{"type": "FeatureCollection", "features": [ {"type": "Feature", "properties": {"norad_id": 31898, "name": "FENGYUN 1C DEB", "group": "fengyun-1c-debris", "lat": 32.449294753342585, "lon": 45.47456729527753, "alt_km": 595.1844968775786, "timestamp": "2025-12-20T14:38:02.254241+00:00", "meta": {"OBJECT_NAME": "FENGYUN 1C DEB", "OBJECT_ID": "1999-025CKZ", "EPOCH": "2025-12-09T09:45:56.221344", "MEAN_MOTION": 14.68362334, "ECCENTRICITY": 0.01439261, "INCLINATION": 98.7065, "RA_OF_ASC_NODE": 207.9611, "ARG_OF_PERICENTER": 229.9634, "MEAN_ANOMALY": 128.887, "EPHEMERIS_TYPE": 0, "CLASSIFICATION_TYPE": "U", "NORAD_CAT_ID": 31898, "ELEMENT_SET_NO": 999, "REV_AT_EPOCH": 65663, "BSTAR": 0.0015942515, "MEAN_MOTION_DOT": 0.00010733, "MEAN_MOTION_DDOT": 0}, "tle": {"line1": "1 31898U 99025CKZ 25343.40690071  .00010733  00000+0  15943-2 0  9995", "line2": "2 31898  98.7065 207.9611 0143926 229.9634 128.8870 14.68362334656632"}}, "geometry": {"type": "Point", "coordinates": [45.47456729527753, 32.449294753342585]}}, {"type": "Feature", "properties": {"norad_id": 31899, "name": "FENGYUN 1C DEB", "group": "fengyun-1c-debris", "lat": -40.340811354855, "lon": 70.21676799429142, "alt_km": 1091.6024682160923, "timestamp": "2025-12-20T14:38:02.254252+00:00", "meta": {"OBJECT_NAME": "FENGYUN 1C DEB", "OBJECT_ID": "1999-025CLA", "EPOCH": "2025-12-15T22:01:47.871552", "MEAN_MOTION": 13.83525889, "ECCENTRICITY": 0.01826858, "INCLINATION": 102.0836, "RA_OF_ASC_NODE": 53.7231, "ARG_OF_PERICENTER": 150.0114, "MEAN_ANOMALY": 211.1643, "EPHEMERIS_TYPE": 0, "CLASSIFICATION_TYPE": "U", "NORAD_CAT_ID": 31899, "ELEMENT_SET_NO": 999, "REV_AT_EPOCH": 67608, "BSTAR": 0.0010397017, "MEAN_MOTION_DOT": 1.238e-05, "MEAN_MOTION_DDOT": 0}, "tle": {"line1": "1 31899U 99025CLA 25349.91791518  .00001238  00000+0  10397-2 0  9994", "line2": "2 31899 102.0836  53.7231 0182685 150.0114 211.1643 13.83525889676082"}}, "geometry": {"type": "Point", "coordinates": [70.21676799429142, -40.340811354855]}}, {"type": "Feature", "properties": {"norad_id": 31901, "name": "FENGYUN 1C DEB", "group": "fengyun-1c-debris", "lat": 0.06434925058159094, "lon": -44.774429169801394, "alt_km": 1010.6713694915097, "timestamp": "2025-12-20T14:38:02.254262+00:00", "meta": {"OBJECT_NAME": "FENGYUN 1C DEB", "OBJECT_ID": "1999-025CLC", "EPOCH": "2025-12-20T04:17:55.981824", "MEAN_MOTION": 13.94145589, "ECCENTRICITY": 0.01316076, "INCLINATION": 98.6014, "RA_OF_ASC_NODE": 314.8342, "ARG_OF_PERICENTER": 168.8836, "MEAN_ANOMALY": 191.5284, "EPHEMERIS_TYPE": 0, "CLASSIFICATION_TYPE": "U", "NORAD_CAT_ID": 31901, "ELEMENT_SET_NO": 999, "REV_AT_EPOCH": 63511, "BSTAR": 0.00026102063, "MEAN_MOTION_DOT": 3.32e-06, "MEAN_MOTION_DDOT": 0}, "tle": {"line1": "1 31901U 99025CLC 25354.17912016  .00000332  00000+0  26102-3 0  9996", "line2": "2 31901  98.6014 314.8342 0131607 168.8836 191.5284 13.94145589635112"}}, "geometry": {"type": "Point", "coordinates": [-44.774429169801394, 0.06434925058159094]}}, {"type": "Feature", "properties": {"norad_id": 31902, "name": "FENGYUN 1C DEB", "group": "fengyun-1c-debris", "lat": 43.921004226324264, "lon": 162.51784275359245, "alt_km": 681.8206950140493, "timestamp": "2025-12-20T14:38:02.254272+00:00", "meta": {"OBJECT_NAME": "FENGYUN 1C DEB", "OBJECT_ID": "1999-025CLD", "EPOCH": "2025-12-19T10:01:59.860416", "MEAN_MOTION": 14.23285177, "ECCENTRICITY": 0.0181097, "INCLINATION": 98.5083, "RA_OF_ASC_NODE": 333.0765, "ARG_OF_PERICENTER": 129.7796, "MEAN_ANOMALY": 22.7158, "EPHEMERIS_TYPE": 0, "CLASSIFICATION_TYPE": "U", "NORAD_CAT_ID": 31902, "ELEMENT_SET_NO": 999, "REV_AT_EPOCH": 64886, "BSTAR": 0.00014609, "MEAN_MOTION_DOT": 3.49e-06, "MEAN_MOTION_DDOT": 0}, "tle": {"line1": "1 31902U 99025CLD 25353.41805394  .00000349  00000+0  14609-3 0  9990", "line2": "2 31902  98.5083 333.0765 0181097 129.7796  22.7158 14.23285177648861"}}, "geometry": {"type": "Point", "coordinates": [162.51784275359245, 43.921004226324264]}}, {"type": "Feature", "properties": {"norad_id": 31903, "name": "FENGYUN 1C DEB", "group": "fengyun-1c-debris", "lat": -42.29312030173494, "lon": -7.486786131663954, "alt_km": 644.7484480760722, "timestamp": "2025-12-20T14:38:02.254282+00:00", "meta": {"OBJECT_NAME": "FENGYUN 1C DEB", "OBJECT_ID": "1999-025CLE", "EPOCH": "2025-12-18T10:12:48.871296", "MEAN_MOTION": 14.60534714, "ECCENTRICITY": 0.01297033, "INCLINATION": 99.274, "RA_OF_ASC_NODE": 341.5214, "ARG_OF_PERICENTER": 18.8329, "MEAN_ANOMALY": 341.7601, "EPHEMERIS_TYPE": 0, "CLASSIFICATION_TYPE": "U", "NORAD_CAT_ID": 31903, "ELEMENT_SET_NO": 999, "REV_AT_EPOCH": 97478, "BSTAR": 0.00066496569, "MEAN_MOTION_DOT": 3.571e-05, "MEAN_MOTION_DDOT": 0}, "tle": {"line1": "1 31903U 99025CLE 25352.42556564  .00003571  00000+0  66497-3 0  9995", "line2": "2 31903  99.2740 341.5214 0129703  18.8329 341.7601 14.60534714974784"}}, "geometry": {"type": "Point", "coordinates": [-7.486786131663954, -42.29312030173494]}}, {"type": "Feature", "properties": {"norad_id": 31905, "name": "FENGYUN 1C DEB", "group": "fengyun-1c-debris", "lat": -3.5865160222974217, "lon": -28.12139785908544, "alt_km": 744.9161157760855, "timestamp": "2025-12-20T14:38:02.254292+00:00", "meta": {"OBJECT_NAME": "FENGYUN 1C DEB", "OBJECT_ID": "1999-025CLG", "EPOCH": "2025-12-20T04:35:49.654752", "MEAN_MOTION": 14.3312814, "ECCENTRICITY": 0.01968476, "INCLINATION": 99.151, "RA_OF_ASC_NODE": 330.8578, "ARG_OF_PERICENTER": 72.4071, "MEAN_ANOMALY": 289.8507, "EPHEMERIS_TYPE": 0, "CLASSIFICATION_TYPE": "U", "NORAD_CAT_ID": 31905, "ELEMENT_SET_NO": 999, "REV_AT_EPOCH": 96731, "BSTAR": 0.00040693181, "MEAN_MOTION_DOT": 1.332e-05, "MEAN_MOTION_DDOT": 0}, "tle": {"line1": "1 31905U 99025CLG 25354.19154693  .00001332  00000+0  40693-3 0  9993", "line2": "2 31905  99.1510 330.8578 0196847  72.4071 289.8507 14.33128140967317"}}, "geometry": {"type": "Point", "coordinates": [-28.12139785908544, -3.5865160222974217]}}, {"type": "Feature", "properties": {"norad_id": 31906, "name": "FENGYUN 1C DEB", "group": "fengyun-1c-debris", "lat": 69.29950214762133, "lon": -28.46935281631649, "alt_km": 766.1752864631953, "timestamp": "2025-12-20T14:38:02.254303+00:00", "meta": {"OBJECT_NAME": "FENGYUN 1C DEB", "OBJECT_ID": "1999-025CLH", "EPOCH": "2025-12-17T15:25:09.477120", "MEAN_MOTION": 14.24695872, "ECCENTRICITY": 0.00511878, "INCLINATION": 98.6925, "RA_OF_ASC_NODE": 124.7118, "ARG_OF_PERICENTER": 110.2154, "MEAN_ANOMALY": 268.1338, "EPHEMERIS_TYPE": 0, "CLASSIFICATION_TYPE": "U", "NORAD_CAT_ID": 31906, "ELEMENT_SET_NO": 999, "REV_AT_EPOCH": 95199, "BSTAR": 0.0017875083, "MEAN_MOTION_DOT": 4.175e-05, "MEAN_MOTION_DDOT": 0}, "tle": {"line1": "1 31906U 99025CLH 25351.64247080  .00004175  00000+0  17875-2 0  9997", "line2": "2 31906  98.6925 124.7118 0051187 110.2154 268.1338 14.24695872951992"}}, "geometry": {"type": "Point", "coordinates": [-28.46935281631649, 69.29950214762133]}}, {"type": "Feature", "properties": {"norad_id": 31910, "name": "FENGYUN 1C DEB", "group": "fengyun-1c-debris", "lat": -82.15864128084819, "lon": 117.16877044015514, "alt_km": 857.9376299520391, "timestamp": "2025-12-20T14:38:02.254312+00:00", "meta": {"OBJECT_NAME": "FENGYUN 1C DEB", "OBJECT_ID": "1999-025CLM", "EPOCH": "2025-12-17T20:43:15.461760", "MEAN_MOTION": 14.47683879, "ECCENTRICITY": 0.02282306, "INCLINATION": 97.6653, "RA_OF_ASC_NODE": 12.6118, "ARG_OF_PERICENTER": 139.661, "MEAN_ANOMALY": 222.1768, "EPHEMERIS_TYPE": 0, "CLASSIFICATION_TYPE": "U", "NORAD_CAT_ID": 31910, "ELEMENT_SET_NO": 999, "REV_AT_EPOCH": 64443, "BSTAR": 0.00051438497, "MEAN_MOTION_DOT": 2.591e-05, "MEAN_MOTION_DDOT": 0}, "tle": {"line1": "1 31910U 99025CLM 25351.86337340  .00002591  00000+0  51438-3 0  9999", "line2": "2 31910  97.6653  12.6118 0228230 139.6610 222.1768 14.47683879644430"}}, "geometry": {"type": "Point", "coordinates": [117.16877044015514, -82.15864128084819]}}, {"type": "Feature", "properties": {"norad_id": 31913, "name": "FENGYUN 1C DEB", "group": "fengyun-1c-debris", "lat": -64.53238638657226, "lon": 75.49591486711388, "alt_km": 825.3128616848326, "timestamp": "2025-12-20T14:38:02.254322+00:00", "meta": {"OBJECT_NAME": "FENGYUN 1C DEB", "OBJECT_ID": "1999-025CLQ", "EPOCH": "2025-12-18T01:01:43.581792", "MEAN_MOTION": 13.91276253, "ECCENTRICITY": 0.0205137, "INCLINATION": 99.2939, "RA_OF_ASC_NODE": 273.034, "ARG_OF_PERICENTER": 298.918, "MEAN_ANOMALY": 59.154, "EPHEMERIS_TYPE": 0, "CLASSIFICATION_TYPE": "U", "NORAD_CAT_ID": 31913, "ELEMENT_SET_NO": 999, "REV_AT_EPOCH": 55960, "BSTAR": 0.0052171572, "MEAN_MOTION_DOT": 7.764e-05, "MEAN_MOTION_DDOT": 0}, "tle": {"line1": "1 31913U 99025CLQ 25352.04286553  .00007764  00000+0  52172-2 0  9994", "line2": "2 31913  99.2939 273.0340 0205137 298.9180  59.1540 13.91276253559602"}}, "geometry": {"type": "Point", "coordinates": [75.49591486711388, -64.53238638657226]}}, {"type": "Feature", "properties": {"norad_id": 31914, "name": "FENGYUN 1C DEB", "group": "fengyun-1c-debris", "lat": 69.52026435112852, "lon": -166.90673980329152, "alt_km": 583.3177339798185, "timestamp": "2025-12-20T14:38:02.254332+00:00", "meta": {"OBJECT_NAME": "FENGYUN 1C DEB", "OBJECT_ID": "1999-025CLR", "EPOCH": "2025-12-19T08:37:29.147232", "MEAN_MOTION": 14.55721326, "ECCENTRICITY": 0.018295, "INCLINATION": 99.0263, "RA_OF_ASC_NODE": 216.9312, "ARG_OF_PERICENTER": 49.3009, "MEAN_ANOMALY": 312.3919, "EPHEMERIS_TYPE": 0, "CLASSIFICATION_TYPE": "U", "NORAD_CAT_ID": 31914, "ELEMENT_SET_NO": 999, "REV_AT_EPOCH": 68569, "BSTAR": 0.00010809, "MEAN_MOTION_DOT": 5.28e-06, "MEAN_MOTION_DDOT": 0}, "tle": {"line1": "1 31914U 99025CLR 25353.35936513  .00000528  00000+0  10809-3 0  9991", "line2": "2 31914  99.0263 216.9312 0182950  49.3009 312.3919 14.55721326685691"}}, "geometry": {"type": "Point", "coordinates": [-166.90673980329152, 69.52026435112852]}}]}